TEN-KOH                 
1 43677U 18084G   23121.90151223  .00002271  00000+0  22516-3 0  9990
2 43677  98.0054 260.9693 0014073 303.7593  56.2284 14.92778366245152
DIWATA-2B               
1 43678U 18084H   23122.35759996  .00002206  00000+0  21639-3 0  9995
2 43678  98.0145 265.4265 0008481 319.0482  41.0114 14.93271138245422
STARS-AO                
1 43679U 18084J   23122.07109192  .00004840  00000+0  43229-3 0  9997
2 43679  98.0157 268.1528 0007257 319.5772  40.4908 14.96400488245536
AUTCUBE 2               
1 43681U 18084K   23121.86338884  .00003657  00000+0  33816-3 0  9994
2 43681  98.0123 266.0183 0007763 316.0553  44.0048 14.95195184245388
METOP-C                 
1 43689U 18087A   23122.08831170  .00000157  00000+0  91741-4 0  9990
2 43689  98.6864 182.3378 0002937 173.2477 186.8741 14.21497094232572
ES'HAIL 2               
1 43700U 18090A   23122.05943153  .00000154  00000+0  00000+0 0  9990
2 43700   0.0171 266.8767 0001405 160.6057 199.4463  1.00274186 16464
FACSAT-1                
1 43721U 18096C   23122.08262911  .00303802  00000+0  15879-2 0  9997
2 43721  97.3070 211.3773 0007672 275.8173 206.4526 15.79999915247253
REAKTOR HELLO WORLD     
1 43743U 18096AA  23122.20268198  .00060039  00000+0  95571-3 0  9998
2 43743  97.3182 208.1137 0008532 349.7721  10.3357 15.53046771247029
ELYSIUM STAR 2 & LFF    
1 43760U 18099C   23121.73529036  .00012457  00000+0  87652-3 0  9990
2 43760  97.5700 188.4950 0008176 254.2602 105.7723 15.05173601240862
2018-099D               
1 43761U 18099D   23121.89568854  .00002052  00000+0  18139-3 0  9993
2 43761  97.5757 184.5798 0012899 282.7336  77.2403 14.97341023240648
AISTECHSAT 2            
1 43768U 18099L   23122.15730193  .00003835  00000+0  32890-3 0  9997
2 43768  97.5705 183.2414 0009644 278.3379  81.6750 14.98048189240351
FOX-1CLIFF (AO-95)      
1 43770U 18099N   23121.85138228  .00005433  00000+0  44840-3 0  9991
2 43770  97.5755 184.6385 0010330 284.5833  75.4245 14.99361085240667
RANGE-A                 
1 43772U 18099Q   23122.17388782  .00007160  00000+0  56585-3 0  9999
2 43772  97.5840 187.5705 0006929 256.9852 103.0599 15.00943093240764
RANGE-B                 
1 43773U 18099R   23122.12186420  .00004024  00000+0  34391-3 0  9997
2 43773  97.5686 183.1278 0010410 272.3504  87.6527 14.98153929240660
2018-099T               
1 43775U 18099T   23122.14343877  .00002463  00000+0  21409-3 0  9993
2 43775  97.5771 184.6421 0012179 279.5338  80.4508 14.97827179240665
MOVE-II                 
1 43780U 18099Y   23121.71037734  .00008644  00000+0  64859-3 0  9996
2 43780  97.5765 186.7436 0007146 315.8914  44.1740 15.02857566240750
SNUSAT-2                
1 43782U 18099AA  23121.74663831  .00003643  00000+0  30275-3 0  9993
2 43782  97.5781 185.0619 0010336 275.1955  84.8089 14.99302704240675
SNUGLITE                
1 43784U 18099AC  23121.84858243  .00005418  00000+0  44176-3 0  9996
2 43784  97.5712 184.7929 0010217 273.1181  86.8873 14.99828389240729
ITASAT 1                
1 43786U 18099AE  23121.77763378  .00004289  00000+0  35729-3 0  9993
2 43786  97.5775 185.6036 0012490 275.0783  84.9015 14.99097725240698
KAZSCISAT-1             
1 43787U 18099AF  23122.12378540  .00009477  00000+0  71726-3 0  9998
2 43787  97.5590 185.6461 0007715 278.7656  81.2695 15.02499851240852
EAGLET-I                
1 43790U 18099AJ  23121.74053524  .00003199  00000+0  27002-3 0  9994
2 43790  97.5811 186.0697 0010470 286.0152  73.9917 14.98784061240425
ESEO                    
1 43792U 18099AL  23121.72230015  .00002686  00000+0  23539-3 0  9997
2 43792  97.5732 184.6554 0010788 281.9909  78.0104 14.97442644240433
CSIM-FD                 
1 43793U 18099AM  23121.75292103  .00007583  00000+0  56212-3 0  9992
2 43793  97.5785 188.0459 0014599 284.1345  75.8258 15.03294039240602
ASTROCAST 0.1           
1 43798U 18099AS  23122.18068534  .00005617  00000+0  43390-3 0  9993
2 43798  97.5919 187.8598 0011930 252.6516 107.3404 15.01876719240864
JY1SAT (JO-97)          
1 43803U 18099AX  23121.70402167  .00005308  00000+0  42767-3 0  9995
2 43803  97.5713 185.4859 0011749 261.2891  98.7003 15.00287245240729
SUOMI-100               
1 43804U 18099AY  23121.82383872  .00004486  00000+0  36461-3 0  9990
2 43804  97.5724 185.4383 0014925 273.4020  86.5496 14.99996534240740
AL-FARABI 2             
1 43805U 18099AZ  23122.14963578  .00006823  00000+0  53109-3 0  9999
2 43805  97.5694 186.7333 0009305 245.4670 114.5585 15.01526099240843
CENTAURI-1              
1 43809U 18099BD  23122.16973001  .00003908  00000+0  32677-3 0  9995
2 43809  97.5745 185.8800 0013409 275.6089  84.3605 14.98995792240473
CHOMPTT                 
1 43855U 18104G   23121.75780983  .00022878  00000+0  60225-3 0  9999
2 43855  85.0350 197.6823 0014894 132.5786 227.6725 15.38300099243437
UWE-4                   
1 43880U 18111E   23121.72118351  .00005670  00000+0  44001-3 0  9991
2 43880  97.6415  27.6416 0015409 339.3854  20.6747 15.01659954237392
ZACUBE-2                
1 43907U 18111AH  23122.27171325  .00026577  00000+0  70247-3 0  9992
2 43907  97.1459   3.0225 0016603  27.7808 111.6697 15.38254516242087
MICRODRAGON             
1 43935U 19003D   23122.19795898  .00016562  00000+0  52056-3 0  9993
2 43935  97.1077 143.5104 0016630 116.4343 243.8608 15.32913618238387
M6P                     
1 44109U 19018AF  23121.82395988  .00123106  00000+0  97855-3 0  9997
2 44109  97.3684 218.2129 0020820  44.7278 315.5659 15.70566857228732
FORMOSAT 7-4            
1 44350U 19036M   23121.74140478  .00007990  00000+0  41264-3 0  9993
2 44350  24.0009 349.1761 0005061 299.7917  60.2084 15.13642413211666
METEOR-M2 2             
1 44387U 19038A   23122.21154234  .00000107  00000+0  66189-4 0  9990
2 44387  98.7709  86.2168 0002399  76.4609 283.6840 14.23777407198768
VDNH-80                 
1 44392U 19038G   23122.23119278  .00022980  00000+0  85173-3 0  9993
2 44392  97.6714 102.0956 0018321 101.9170  23.7214 15.27478045211292
D-STAR ONE (LIGHTSAT)   
1 44393U 19038H   23121.98181600  .00023132  00000+0  84325-3 0  9991
2 44393  97.6714 101.8648 0018534 104.0888 256.2412 15.28018712211457
AMGU-1 (AMURSAT)        
1 44394U 19038J   23121.92646003  .00027412  00000+0  95583-3 0  9992
2 44394  97.6716 101.9950 0018299 102.8247 257.5039 15.29443011211465
DOT-1                   
1 44399U 19038P   23121.93636655  .00012678  00000+0  55758-3 0  9998
2 44399  97.6799  99.1628 0022199 114.8002 245.5546 15.21799956211247
SOKRAT                  
1 44404U 19038U   23121.91317133  .00025790  00000+0  91264-3 0  9991
2 44404  97.6702 101.5108 0018409 105.5780 254.7493 15.28972206211430
LUCKY-7                 
1 44406U 19038W   23121.87736108  .00014021  00000+0  59892-3 0  9991
2 44406  97.6779  99.7193 0021907 106.9137 253.4503 15.22771848211279
D-STAR ONE (EXOCONNECT) 
1 44410U 19038AA  23121.89580265  .00056938  00000+0  13365-2 0  9996
2 44410  97.6602 104.8483 0015976  97.1236 263.1827 15.41716473211685
NARSSCUBE-2             
1 44415U 19022E   23121.90023127  .00026788  00000+0  54299-3 0  9997
2 44415  51.6377   6.8130 0011132 133.3396 226.8521 15.46133287209145
DUCHIFAT-3              
1 44854U 19089C   23122.07939063  .00008553  00000+0  58702-3 0  9994
2 44854  36.9648   6.6987 0010799 300.5182 173.1352 15.05524290185889
OPS-SAT                 
1 44878U 19092F   23121.47030061  .00025080  00000+0  80688-3 0  9999
2 44878  97.4773 309.6920 0008262 300.6187  59.4239 15.32193403186639
FLORIPASAT-1            
1 44885U 19093G   23122.21171446  .00004521  00000+0  52980-3 0  9995
2 44885  97.8687 203.8951 0012863 226.3461 133.6687 14.85443829182124
BY70-2                  
1 45857U 20042B   23122.13020716  .00020000  00000+0  21388-2 0  9992
2 45857  97.9256 201.9315 0011331 154.9273 205.2449 14.88726331152681
SALSAT                  
1 46495U 20068K   23121.85728391  .00005024  00000+0  33629-3 0  9992
2 46495  97.7669  69.3951 0013813 278.8497  81.1166 15.07312478142095
NETSAT-4                
1 46504U 20068U   23121.84223916  .00007557  00000+0  50762-3 0  9995
2 46504  97.7589  67.2433 0010647 336.3335  23.7399 15.07039698141923
NETSAT-3                
1 46505U 20068V   23121.80430755  .00006113  00000+0  41327-3 0  9997
2 46505  97.7575  67.0522 0010362 346.9272  13.1686 15.06888109141927
NETSAT-1                
1 46506U 20068W   23121.90555331  .00006256  00000+0  42554-3 0  9998
2 46506  97.7576  67.0466 0008730 358.6971   1.4197 15.06660262141934
NETSAT-2                
1 46507U 20068X   23121.83807801  .00007446  00000+0  50155-3 0  9991
2 46507  97.7578  66.9968 0007999   6.0663 354.0658 15.06964862141875
UVSQ-SAT                
1 47438U 21006AB  23122.12699009  .00014027  00000+0  59826-3 0  9997
2 47438  97.3890 179.9330 0009064 235.9794 124.0582 15.22998375125634
SOMP2B                  
1 47445U 21006AJ  23122.15975808  .00015098  00000+0  65667-3 0  9991
2 47445  97.3859 179.2862 0008683 241.6495 118.3866 15.22319569125619
DIY-1 (ARDUIQUBE)       
1 47963U 21022AH  23121.68154300  .00121009  00000+0  24591-2 0  9997
2 47963  97.5024  28.2085 0014191 104.2027 256.0799 15.45763154115371
CAS-5A                  
1 54684U 22167C   23122.33734060  .00012917  00000+0  73344-3 0  9994
2 54684  97.5549 260.2833 0014957 131.9946 288.5652 15.12963836 21745
